{
  "norad_id": 66496,
  "name": "STARLINK-35909",
  "history": [
    {
      "epoch": "2026-03-28T18:19:58.358496Z",
      "apogee_km": 484.376079884868,
      "perigee_km": 481.53476429103284,
      "latitude_deg": -1.0282140078775764e-05,
      "longitude_deg": 142.00648824203014,
      "height_km": 482.8477468106818,
      "semi_major_axis_km": 6861.092422087951,
      "eccentricity": 0.00020706,
      "inclination_deg": 43.001,
      "raan_deg": 243.1793,
      "arg_perigee_deg": 265.3565,
      "mean_anomaly_deg": 94.705,
      "mean_motion_rev_day": 15.27611284
    }
  ]
}