{"fetched_at":"2026-03-30T06:02:59Z","count":15439,"tles":[{"name":"STARLINK-35909","line1":"1 66496U 25263M   26087.76386989  .00028442  00000+0  10381-2 0  9992","line2":"2 66496  43.0010 243.1793 0002070 265.3565  94.7050 15.27611284 21815","category":"Starlink"}]}